COMMENT,ORIGINATOR,NORAD_CAT_ID,OBJECT_NAME,OBJECT_TYPE,CLASSIFICATION_TYPE,INTLDES,EPOCH,EPOCH_MICROSECONDS,MEAN_MOTION,ECCENTRICITY,INCLINATION,RA_OF_ASC_NODE,ARG_OF_PERICENTER,MEAN_ANOMALY,EPHEMERIS_TYPE,ELEMENT_SET_NO,REV_AT_EPOCH,BSTAR,MEAN_MOTION_DOT,MEAN_MOTION_DDOT,FILE,TLE_LINE0,TLE_LINE1,TLE_LINE2,OBJECT_ID,OBJECT_NUMBER,SEMIMAJOR_AXIS,PERIOD,APOGEE,PERIGEE,DECAYED
"GENERATED VIA SPACETRACK.ORG API","18 SPCS","48904","SPACEBEE-111","PAYLOAD","U","21059AB","2021-11-11 17:54:27","488736","15.13102714","0.0012144","97.5333","82.6612","129.9645","230.2655","0","999","2100","0.00016307","0.00002826","0","3212416","0 SPACEBEE-111","1 48904U 21059AB  21315.74615149  .00002826  00000-0  16307-3 0  9999","2 48904  97.5333  82.6612 0012144 129.9645 230.2655 15.13102714 21001","2021-059AB","48904","6904.882","95.169","535.132","518.361","1"
"GENERATED VIA SPACETRACK.ORG API","18 SPCS","48904","SPACEBEE-111","PAYLOAD","U","21059AB","2021-11-11 21:04:54","962688","15.13103448","0.001215","97.5332","82.7919","129.5583","230.6723","0","999","2102","0.0001579","0.00002734","0","3212485","0 SPACEBEE-111","1 48904U 21059AB  21315.87841392  .00002734  00000-0  15790-3 0  9997","2 48904  97.5332  82.7919 0012150 129.5583 230.6723 15.13103448 21022","2021-059AB","48904","6904.879","95.169","535.134","518.355","1"
"GENERATED VIA SPACETRACK.ORG API","18 SPCS","48904","SPACEBEE-111","PAYLOAD","U","21059AB","2021-11-12 14:32:26","39616","15.13106867","0.0012134","97.5332","83.5105","127.3738","232.86","0","999","2113","0.00015088","0.0000261","0","3213417","0 SPACEBEE-111","1 48904U 21059AB  21316.60585694  .00002610  00000-0  15088-3 0  9992","2 48904  97.5332  83.5105 0012134 127.3738 232.8600 15.13106867 21136","2021-059AB","48904","6904.869","95.168","535.112","518.356","1"
"GENERATED VIA SPACETRACK.ORG API","18 SPCS","48904","SPACEBEE-111","PAYLOAD","U","21059AB","2021-11-12 20:53:20","927040","15.13107675","0.0012144","97.5332","83.7719","126.5586","233.6765","0","999","2117","0.00013486","0.00002326","0","3213571","0 SPACEBEE-111","1 48904U 21059AB  21316.87038110  .00002326  00000-0  13486-3 0  9991","2 48904  97.5332  83.7719 0012144 126.5586 233.6765 15.13107675 21175","2021-059AB","48904","6904.866","95.168","535.117","518.346","1"
"GENERATED VIA SPACETRACK.ORG API","18 SPCS","48904","SPACEBEE-111","PAYLOAD","U","21059AB","2021-11-13 07:59:56","971392","15.13110368","0.0012161","97.5332","84.2292","125.0969","235.1404","0","999","2124","0.00014036","0.00002423","0","3214083","0 SPACEBEE-111","1 48904U 21059AB  21317.33329828  .00002423  00000-0  14036-3 0  9992","2 48904  97.5332  84.2292 0012161 125.0969 235.1404 15.13110368 21243","2021-059AB","48904","6904.858","95.168","535.120","518.326","1"
"GENERATED VIA SPACETRACK.ORG API","18 SPCS","48904","SPACEBEE-111","PAYLOAD","U","21059AB","2021-11-13 19:06:32","933664","15.13112919","0.0012178","97.5333","84.6865","123.6877","236.5517","0","999","2131","0.00014218","0.00002456","0","3214514","0 SPACEBEE-111","1 48904U 21059AB  21317.79621451  .00002456  00000-0  14218-3 0  9997","2 48904  97.5333  84.6865 0012178 123.6877 236.5517 15.13112919 21316","2021-059AB","48904","6904.851","95.168","535.124","518.307","1"
"GENERATED VIA SPACETRACK.ORG API","18 SPCS","48904","SPACEBEE-111","PAYLOAD","U","21059AB","2021-11-13 22:17:00","350592","15.13112695","0.0012191","97.5333","84.8172","123.2793","236.9608","0","999","2133","0.00012684","0.00002184","0","3214594","0 SPACEBEE-111","1 48904U 21059AB  21317.92847628  .00002184  00000-0  12684-3 0  9991","2 48904  97.5333  84.8172 0012191 123.2793 236.9608 15.13112695 21335","2021-059AB","48904","6904.851","95.168","535.134","518.299","1"
"GENERATED VIA SPACETRACK.ORG API","18 SPCS","48904","SPACEBEE-111","PAYLOAD","U","21059AB","2021-11-14 14:09:17","326368","15.13117136","0.001221","97.5333","85.4706","121.2337","239.0092","0","999","2143","0.00015143","0.0000262","0","3214995","0 SPACEBEE-111","1 48904U 21059AB  21318.58978387  .00002620  00000-0  15143-3 0  9999","2 48904  97.5333  85.4706 0012210 121.2337 239.0092 15.13117136 21436","2021-059AB","48904","6904.838","95.168","535.134","518.272","1"
"GENERATED VIA SPACETRACK.ORG API","18 SPCS","48904","SPACEBEE-111","PAYLOAD","U","21059AB","2021-11-14 22:05:25","766304","15.13118264","0.0012219","97.5334","85.7972","120.2488","239.9954","0","999","2148","0.00014272","0.00002466","0","3215179","0 SPACEBEE-111","1 48904U 21059AB  21318.92043711  .00002466  00000-0  14272-3 0  9991","2 48904  97.5334  85.7972 0012219 120.2488 239.9954 15.13118264 21484","2021-059AB","48904","6904.834","95.168","535.136","518.262","1"
"GENERATED VIA SPACETRACK.ORG API","18 SPCS","48904","SPACEBEE-111","PAYLOAD","U","21059AB","2021-11-15 07:36:47","878848","15.13120881","0.0012224","97.5335","86.1892","119.019","241.2267","0","999","2154","0.00016027","0.00002777","0","3215524","0 SPACEBEE-111","1 48904U 21059AB  21319.31722082  .00002777  00000-0  16027-3 0  9995","2 48904  97.5335  86.1892 0012224 119.0190 241.2267 15.13120881 21541","2021-059AB","48904","6904.826","95.168","535.132","518.251","1"
"GENERATED VIA SPACETRACK.ORG API","18 SPCS","48904","SPACEBEE-111","PAYLOAD","U","21059AB","2021-11-15 07:36:47","878848","15.13120881","0.0012224","97.5335","86.1892","119.019","241.2267","0","999","2154","0.00016027","0.00002777","0","3215681","0 SPACEBEE-111","1 48904U 21059AB  21319.31722082  .00002777  00000-0  16027-3 0  9995","2 48904  97.5335  86.1892 0012224 119.0190 241.2267 15.13120881 21541","2021-059AB","48904","6904.826","95.168","535.132","518.251","1"
"GENERATED VIA SPACETRACK.ORG API","18 SPCS","48904","SPACEBEE-111","PAYLOAD","U","21059AB","2021-11-15 18:43:23","563776","15.13124263","0.0012254","97.5336","86.6466","117.6267","242.621","0","999","2161","0.00017852","0.00003102","0","3215928","0 SPACEBEE-111","1 48904U 21059AB  21319.78013384  .00003102  00000-0  17852-3 0  9994","2 48904  97.5336  86.6466 0012254 117.6267 242.6210 15.13124263 21615","2021-059AB","48904","6904.816","95.167","535.142","518.220","1"
"GENERATED VIA SPACETRACK.ORG API","18 SPCS","48904","SPACEBEE-111","PAYLOAD","U","21059AB","2021-11-16 13:46:07","394880","15.13130038","0.0012274","97.5338","87.4308","115.2005","245.05","0","999","2173","0.00020218","0.00003522","0","3216827","0 SPACEBEE-111","1 48904U 21059AB  21320.57369670  .00003522  00000-0  20218-3 0  9991","2 48904  97.5338  87.4308 0012274 115.2005 245.0500 15.13130038 21736","2021-059AB","48904","6904.798","95.167","535.138","518.189","1"
"GENERATED VIA SPACETRACK.ORG API","18 SPCS","48904","SPACEBEE-111","PAYLOAD","U","21059AB","2021-11-16 18:31:48","315936","15.13131316","0.0012277","97.5339","87.6269","114.6206","245.6306","0","999","2176","0.0002029","0.00003535","0","3216931","0 SPACEBEE-111","1 48904U 21059AB  21320.77208699  .00003535  00000-0  20290-3 0  9990","2 48904  97.5339  87.6269 0012277 114.6206 245.6306 15.13131316 21767","2021-059AB","48904","6904.795","95.167","535.137","518.183","1"
"GENERATED VIA SPACETRACK.ORG API","18 SPCS","48904","SPACEBEE-111","PAYLOAD","U","21059AB","2021-11-16 18:31:48","315936","15.13131316","0.0012277","97.5339","87.6269","114.6206","245.6306","0","999","2176","0.0002029","0.00003535","0","3217236","0 SPACEBEE-111","1 48904U 21059AB  21320.77208699  .00003535  00000-0  20290-3 0  9990","2 48904  97.5339  87.6269 0012277 114.6206 245.6306 15.13131316 21767","2021-059AB","48904","6904.795","95.167","535.137","518.183","1"
"GENERATED VIA SPACETRACK.ORG API","18 SPCS","48904","SPACEBEE-111","PAYLOAD","U","21059AB","2021-11-17 07:13:37","342560","15.13134591","0.0012295","97.534","88.1496","113.0034","247.2495","0","999","2184","0.00019874","0.00003462","0","3217692","0 SPACEBEE-111","1 48904U 21059AB  21321.30112665  .00003462  00000-0  19874-3 0  9992","2 48904  97.5340  88.1496 0012295 113.0034 247.2495 15.13134591 21843","2021-059AB","48904","6904.785","95.167","535.139","518.160","1"
"GENERATED VIA SPACETRACK.ORG API","18 SPCS","48904","SPACEBEE-111","PAYLOAD","U","21059AB","2021-11-17 19:55:26","294016","15.1313759","0.0012314","97.5342","88.6724","111.3937","248.8609","0","999","2192","0.00019021","0.0000331","0","3217982","0 SPACEBEE-111","1 48904U 21059AB  21321.83016544  .00003310  00000-0  19021-3 0  9995","2 48904  97.5342  88.6724 0012314 111.3937 248.8609 15.13137590 21924","2021-059AB","48904","6904.775","95.166","535.143","518.138","1"
"GENERATED VIA SPACETRACK.ORG API","18 SPCS","48904","SPACEBEE-111","PAYLOAD","U","21059AB","2021-11-18 03:51:34","289856","15.13139712","0.0012312","97.5343","88.9992","110.3489","249.9066","0","999","2197","0.00018439","0.00003207","0","3218105","0 SPACEBEE-111","1 48904U 21059AB  21322.16081354  .00003207  00000-0  18439-3 0  9990","2 48904  97.5343  88.9992 0012312 110.3489 249.9066 15.13139712 21976","2021-059AB","48904","6904.769","95.166","535.135","518.133","1"
"GENERATED VIA SPACETRACK.ORG API","18 SPCS","48904","SPACEBEE-111","PAYLOAD","U","21059AB","2021-11-18 07:02:01","483872","15.13140536","0.0012318","97.5343","89.1299","109.9503","250.3056","0","999","2199","0.00018146","0.00003155","0","3218461","0 SPACEBEE-111","1 48904U 21059AB  21322.29307273  .00003155  00000-0  18146-3 0  9992","2 48904  97.5343  89.1299 0012318 109.9503 250.3056 15.13140536 21999","2021-059AB","48904","6904.767","95.166","535.137","518.126","1"
"GENERATED VIA SPACETRACK.ORG API","18 SPCS","48904","SPACEBEE-111","PAYLOAD","U","21059AB","2021-11-18 19:43:50","215872","15.13142907","0.0012338","97.5345","89.6527","108.321","251.9364","0","999","2207","0.00015654","0.00002713","0","3218669","0 SPACEBEE-111","1 48904U 21059AB  21322.82210898  .00002713  00000-0  15654-3 0  9997","2 48904  97.5345  89.6527 0012338 108.3210 251.9364 15.13142907 22073","2021-059AB","48904","6904.759","95.166","535.143","518.105","1"
